start=new Date('2021-09-26T00:00:00.000Z').valueOf();
sats=[{"PERIAPSIS":"545.783","TLE_LINE1":"1 47399U 21005BC  21268.36854574 -.00001503  00000-0 -82050-4 0  9991","OBJECT_NAME":"STARLINK-2121","ECCENTRICITY":"0.00021810","EPHEMERIS_TYPE":"0","COUNTRY_CODE":"US","OBJECT_ID":"2021-005BC","OBJECT_TYPE":"PAYLOAD","MEAN_ANOMALY":"285.8114","RA_OF_ASC_NODE":"142.4476","PERIOD":"95.594","NORAD_CAT_ID":"47399","SEMIMAJOR_AXIS":"6925.429","BSTAR":"-0.00008205000000","REF_FRAME":"TEME","MEAN_ELEMENT_THEORY":"SGP4","ARG_OF_PERICENTER":"74.3115","MEAN_MOTION":"15.06373878","RCS_SIZE":"LARGE","DECAY_DATE":null,"TLE_LINE2":"2 47399  53.0531 142.4476 0002181  74.3115 285.8114 15.06373878 38190","CENTER_NAME":"EARTH","ELEMENT_SET_NO":"999","MEAN_MOTION_DOT":"-0.00001503","GP_ID":"185505923","MEAN_MOTION_DDOT":"0.0000000000000","REV_AT_EPOCH":"3819","APOAPSIS":"548.804","EPOCH":"2021-09-25T08:50:42.351936","FILE":"3128274","CLASSIFICATION_TYPE":"U","LAUNCH_DATE":"2021-01-20","TIME_SYSTEM":"UTC","SITE":"AFETR","INCLINATION":"53.0531"},{"GP_ID":"185506173","MEAN_MOTION_DDOT":"0.0000000000000","CENTER_NAME":"EARTH","ELEMENT_SET_NO":"999","MEAN_MOTION_DOT":"-0.00000004","LAUNCH_DATE":"2021-01-20","TIME_SYSTEM":"UTC","INCLINATION":"53.0514","SITE":"AFETR","REV_AT_EPOCH":"3855","APOAPSIS":"548.912","EPOCH":"2021-09-25T21:11:06.638208","FILE":"3128274","CLASSIFICATION_TYPE":"U","MEAN_ANOMALY":"273.2170","RA_OF_ASC_NODE":"120.1515","PERIOD":"95.593","OBJECT_NAME":"STARLINK-2122","TLE_LINE1":"1 47400U 21005BD  21268.88271572 -.00000004  00000-0  18645-4 0  9995","PERIAPSIS":"545.574","ECCENTRICITY":"0.00024100","EPHEMERIS_TYPE":"0","COUNTRY_CODE":"US","OBJECT_ID":"2021-005BD","OBJECT_TYPE":"PAYLOAD","DECAY_DATE":null,"RCS_SIZE":"LARGE","TLE_LINE2":"2 47400  53.0514 120.1515 0002410  86.9094 273.2170 15.06390361 38550","NORAD_CAT_ID":"47400","SEMIMAJOR_AXIS":"6925.378","BSTAR":"0.00001864500000","MEAN_ELEMENT_THEORY":"SGP4","REF_FRAME":"TEME","ARG_OF_PERICENTER":"86.9094","MEAN_MOTION":"15.06390361"},{"OBJECT_TYPE":"PAYLOAD","OBJECT_ID":"2021-005BE","COUNTRY_CODE":"US","EPHEMERIS_TYPE":"0","OBJECT_NAME":"STARLINK-2123","TLE_LINE1":"1 47401U 21005BE  21267.97230925 -.00000447  00000-0 -11065-4 0  9993","PERIAPSIS":"545.761","ECCENTRICITY":"0.00021560","PERIOD":"95.593","RA_OF_ASC_NODE":"134.2362","MEAN_ANOMALY":"287.3222","MEAN_MOTION":"15.06386793","ARG_OF_PERICENTER":"72.8003","MEAN_ELEMENT_THEORY":"SGP4","REF_FRAME":"TEME","BSTAR":"-0.00001106500000","SEMIMAJOR_AXIS":"6925.389","NORAD_CAT_ID":"47401","TLE_LINE2":"2 47401  53.0565 134.2362 0002156  72.8003 287.3222 15.06386793 38282","RCS_SIZE":"LARGE","DECAY_DATE":null,"MEAN_MOTION_DOT":"-0.00000447","ELEMENT_SET_NO":"999","CENTER_NAME":"EARTH","MEAN_MOTION_DDOT":"0.0000000000000","GP_ID":"185469218","CLASSIFICATION_TYPE":"U","EPOCH":"2021-09-24T23:20:07.519200","FILE":"3127665","APOAPSIS":"548.747","REV_AT_EPOCH":"3828","INCLINATION":"53.0565","SITE":"AFETR","LAUNCH_DATE":"2021-01-20","TIME_SYSTEM":"UTC"},{"GP_ID":"185507175","MEAN_MOTION_DDOT":"0.0000000000000","CENTER_NAME":"EARTH","ELEMENT_SET_NO":"999","MEAN_MOTION_DOT":"-0.00000247","TIME_SYSTEM":"UTC","LAUNCH_DATE":"2021-01-20","SITE":"AFETR","INCLINATION":"53.0556","REV_AT_EPOCH":"3833","APOAPSIS":"548.682","FILE":"3128274","EPOCH":"2021-09-25T07:44:21.633504","CLASSIFICATION_TYPE":"U","MEAN_ANOMALY":"286.9745","RA_OF_ASC_NODE":"132.6678","PERIOD":"95.592","TLE_LINE1":"1 47402U 21005BF  21268.32247261 -.00000247  00000-0  23556-5 0  9991","PERIAPSIS":"545.726","OBJECT_NAME":"STARLINK-2124","ECCENTRICITY":"0.00021340","EPHEMERIS_TYPE":"0","COUNTRY_CODE":"US","OBJECT_TYPE":"PAYLOAD","OBJECT_ID":"2021-005BF","DECAY_DATE":null,"RCS_SIZE":"LARGE","TLE_LINE2":"2 47402  53.0556 132.6678 0002134  73.1478 286.9745 15.06403041 38338","SEMIMAJOR_AXIS":"6925.339","BSTAR":"0.00000235560000","NORAD_CAT_ID":"47402","MEAN_ELEMENT_THEORY":"SGP4","REF_FRAME":"TEME","ARG_OF_PERICENTER":"73.1478","MEAN_MOTION":"15.06403041"},{"CENTER_NAME":"EARTH","ELEMENT_SET_NO":"999","MEAN_MOTION_DOT":"-0.00006901","GP_ID":"185506424","MEAN_MOTION_DDOT":"0.0000000000000","REV_AT_EPOCH":"3833","APOAPSIS":"548.093","FILE":"3128274","EPOCH":"2021-09-25T07:54:57.343104","CLASSIFICATION_TYPE":"U","TIME_SYSTEM":"UTC","LAUNCH_DATE":"2021-01-20","INCLINATION":"53.0561","SITE":"AFETR","ECCENTRICITY":"0.00012150","TLE_LINE1":"1 47403U 21005BG  21268.32983036 -.00006901  00000-0 -44500-3 0  9993","PERIAPSIS":"546.410","OBJECT_NAME":"STARLINK-2127","EPHEMERIS_TYPE":"0","COUNTRY_CODE":"US","OBJECT_ID":"2021-005BG","OBJECT_TYPE":"PAYLOAD","MEAN_ANOMALY":"302.6562","RA_OF_ASC_NODE":"132.6330","PERIOD":"95.593","BSTAR":"-0.00044500000000","SEMIMAJOR_AXIS":"6925.387","NORAD_CAT_ID":"47403","MEAN_ELEMENT_THEORY":"SGP4","REF_FRAME":"TEME","ARG_OF_PERICENTER":"57.4544","MEAN_MOTION":"15.06387483","DECAY_DATE":null,"RCS_SIZE":"LARGE","TLE_LINE2":"2 47403  53.0561 132.6330 0001215  57.4544 302.6562 15.06387483 38332"},{"REV_AT_EPOCH":"3842","APOAPSIS":"548.830","FILE":"3128274","EPOCH":"2021-09-25T22:09:32.095296","CLASSIFICATION_TYPE":"U","LAUNCH_DATE":"2021-01-20","TIME_SYSTEM":"UTC","INCLINATION":"53.0561","SITE":"AFETR","CENTER_NAME":"EARTH","ELEMENT_SET_NO":"999","MEAN_MOTION_DOT":"-0.00000062","GP_ID":"185506674","MEAN_MOTION_DDOT":"0.0000000000000","SEMIMAJOR_AXIS":"6925.353","NORAD_CAT_ID":"47404","BSTAR":"0.00001473600000","MEAN_ELEMENT_THEORY":"SGP4","REF_FRAME":"TEME","ARG_OF_PERICENTER":"76.0822","MEAN_MOTION":"15.06398534","DECAY_DATE":null,"RCS_SIZE":"LARGE","TLE_LINE2":"2 47404  53.0561 129.9681 0002327  76.0822 284.0426 15.06398534 38423","ECCENTRICITY":"0.00023270","TLE_LINE1":"1 47404U 21005BH  21268.92328814 -.00000062  00000-0  14736-4 0  9997","PERIAPSIS":"545.607","OBJECT_NAME":"STARLINK-2128","EPHEMERIS_TYPE":"0","COUNTRY_CODE":"US","OBJECT_TYPE":"PAYLOAD","OBJECT_ID":"2021-005BH","MEAN_ANOMALY":"284.0426","RA_OF_ASC_NODE":"129.9681","PERIOD":"95.592"},{"SITE":"AFETR","INCLINATION":"53.0560","TIME_SYSTEM":"UTC","LAUNCH_DATE":"2021-01-20","FILE":"3128274","EPOCH":"2021-09-25T10:23:34.228320","APOAPSIS":"548.634","CLASSIFICATION_TYPE":"U","REV_AT_EPOCH":"3792","GP_ID":"185507426","MEAN_MOTION_DDOT":"0.0000000000000","MEAN_MOTION_DOT":"-0.00001525","ELEMENT_SET_NO":"999","CENTER_NAME":"EARTH","TLE_LINE2":"2 47405  53.0560 162.1665 0002037  79.8898 280.2320 15.06396687 37928","DECAY_DATE":null,"RCS_SIZE":"LARGE","ARG_OF_PERICENTER":"79.8898","MEAN_MOTION":"15.06396687","MEAN_ELEMENT_THEORY":"SGP4","REF_FRAME":"TEME","SEMIMAJOR_AXIS":"6925.359","NORAD_CAT_ID":"47405","BSTAR":"-0.00008350700000","PERIOD":"95.592","MEAN_ANOMALY":"280.2320","RA_OF_ASC_NODE":"162.1665","OBJECT_TYPE":"PAYLOAD","OBJECT_ID":"2021-005BJ","TLE_LINE1":"1 47405U 21005BJ  21268.43303505 -.00001525  00000-0 -83507-4 0  9992","OBJECT_NAME":"STARLINK-2130","PERIAPSIS":"545.813","ECCENTRICITY":"0.00020370","COUNTRY_CODE":"US","EPHEMERIS_TYPE":"0"},{"EPHEMERIS_TYPE":"0","COUNTRY_CODE":"US","TLE_LINE1":"1 47406U 21005BK  21268.33721670  .00000459  00000-0  49758-4 0  9992","PERIAPSIS":"545.612","OBJECT_NAME":"STARLINK-2133","ECCENTRICITY":"0.00022930","OBJECT_ID":"2021-005BK","OBJECT_TYPE":"PAYLOAD","RA_OF_ASC_NODE":"132.5891","MEAN_ANOMALY":"285.6678","PERIOD":"95.592","SEMIMAJOR_AXIS":"6925.335","BSTAR":"0.00004975800000","NORAD_CAT_ID":"47406","REF_FRAME":"TEME","MEAN_ELEMENT_THEORY":"SGP4","MEAN_MOTION":"15.06404544","ARG_OF_PERICENTER":"74.4564","RCS_SIZE":"LARGE","DECAY_DATE":null,"TLE_LINE2":"2 47406  53.0546 132.5891 0002293  74.4564 285.6678 15.06404544 38333","CENTER_NAME":"EARTH","ELEMENT_SET_NO":"999","MEAN_MOTION_DOT":"0.00000459","MEAN_MOTION_DDOT":"0.0000000000000","GP_ID":"185507676","REV_AT_EPOCH":"3833","CLASSIFICATION_TYPE":"U","APOAPSIS":"548.788","FILE":"3128274","EPOCH":"2021-09-25T08:05:35.522880","TIME_SYSTEM":"UTC","LAUNCH_DATE":"2021-01-20","INCLINATION":"53.0546","SITE":"AFETR"},{"RCS_SIZE":"LARGE","DECAY_DATE":null,"TLE_LINE2":"2 47407  53.0555 132.5680 0002303  68.1841 291.9393 15.06397370 38332","MEAN_ELEMENT_THEORY":"SGP4","REF_FRAME":"TEME","SEMIMAJOR_AXIS":"6925.357","NORAD_CAT_ID":"47407","BSTAR":"0.00002124000000","MEAN_MOTION":"15.06397370","ARG_OF_PERICENTER":"68.1841","RA_OF_ASC_NODE":"132.5680","MEAN_ANOMALY":"291.9393","PERIOD":"95.592","COUNTRY_CODE":"US","EPHEMERIS_TYPE":"0","PERIAPSIS":"545.627","TLE_LINE1":"1 47407U 21005BL  21268.34459268  .00000035  00000-0  21240-4 0  9991","ECCENTRICITY":"0.00023030","OBJECT_NAME":"STARLINK-2134","OBJECT_TYPE":"PAYLOAD","OBJECT_ID":"2021-005BL","LAUNCH_DATE":"2021-01-20","TIME_SYSTEM":"UTC","INCLINATION":"53.0555","SITE":"AFETR","REV_AT_EPOCH":"3833","CLASSIFICATION_TYPE":"U","FILE":"3128274","EPOCH":"2021-09-25T08:16:12.807552","APOAPSIS":"548.817","MEAN_MOTION_DDOT":"0.0000000000000","GP_ID":"185505924","ELEMENT_SET_NO":"999","CENTER_NAME":"EARTH","MEAN_MOTION_DOT":"0.00000035"},{"MEAN_ANOMALY":"283.8729","RA_OF_ASC_NODE":"132.6883","PERIOD":"95.593","OBJECT_NAME":"STARLINK-2135","TLE_LINE1":"1 47408U 21005BM  21268.31510889 -.00002110  00000-0 -12279-3 0  9995","PERIAPSIS":"545.748","ECCENTRICITY":"0.00021610","EPHEMERIS_TYPE":"0","COUNTRY_CODE":"US","OBJECT_TYPE":"PAYLOAD","OBJECT_ID":"2021-005BM","RCS_SIZE":"LARGE","DECAY_DATE":null,"TLE_LINE2":"2 47408  53.0554 132.6883 0002161  76.2500 283.8729 15.06389747 38334","SEMIMAJOR_AXIS":"6925.380","NORAD_CAT_ID":"47408","BSTAR":"-0.00012279000000","REF_FRAME":"TEME","MEAN_ELEMENT_THEORY":"SGP4","ARG_OF_PERICENTER":"76.2500","MEAN_MOTION":"15.06389747","GP_ID":"185506174","MEAN_MOTION_DDOT":"0.0000000000000","CENTER_NAME":"EARTH","ELEMENT_SET_NO":"999","MEAN_MOTION_DOT":"-0.00002110","LAUNCH_DATE":"2021-01-20","TIME_SYSTEM":"UTC","INCLINATION":"53.0554","SITE":"AFETR","REV_AT_EPOCH":"3833","APOAPSIS":"548.742","FILE":"3128274","EPOCH":"2021-09-25T07:33:45.408096","CLASSIFICATION_TYPE":"U"}];
